{
  "type": "FeatureCollection",
  "features": [
    {
      "type": "Feature",
      "properties": {
        "norad_id": 30274,
        "name": "FENGYUN 1C DEB",
        "group": "fengyun-1c-debris",
        "lat": 14.62011586653954,
        "lon": -46.664987543500715,
        "alt_km": 717.1741248476201,
        "timestamp": "2025-12-26T17:24:54.994528+00:00",
        "meta_object_name": "FENGYUN 1C DEB",
        "meta_object_id": "1999-025YK",
        "meta_epoch": "2025-12-25T14:47:33.624960",
        "meta_mean_motion": 14.51876025,
        "meta_eccentricity": 0.0004654,
        "meta_inclination": 99.3016,
        "meta_ra_of_asc_node": 129.6577,
        "meta_arg_of_pericenter": 187.3135,
        "meta_mean_anomaly": 303.1192,
        "meta_ephemeris_type": 0,
        "meta_classification_type": "U",
        "meta_norad_cat_id": 30274,
        "meta_element_set_no": 999,
        "meta_rev_at_epoch": 98397,
        "meta_bstar": 0.0027783,
        "meta_mean_motion_dot": 0.0001116,
        "meta_mean_motion_ddot": 0,
        "tle_line1": "1 30274U 99025YK  25359.61636140  .00011160  00000+0  27783-2 0  9999",
        "tle_line2": "2 30274  99.3016 129.6577 0004654 187.3135 303.1192 14.51876025983974"
      },
      "geometry": {
        "type": "Point",
        "coordinates": [
          -46.664987543500715,
          14.62011586653954
        ]
      }
    },
    {
      "type": "Feature",
      "properties": {
        "norad_id": 30275,
        "name": "FENGYUN 1C DEB",
        "group": "fengyun-1c-debris",
        "lat": 23.93325277843815,
        "lon": -90.92397485043594,
        "alt_km": 711.975031901512,
        "timestamp": "2025-12-26T17:24:54.994538+00:00",
        "meta_object_name": "FENGYUN 1C DEB",
        "meta_object_id": "1999-025YL",
        "meta_epoch": "2025-12-26T05:19:36.676128",
        "meta_mean_motion": 14.45491888,
        "meta_eccentricity": 0.00396318,
        "meta_inclination": 98.6267,
        "meta_ra_of_asc_node": 84.7008,
        "meta_arg_of_pericenter": 147.5322,
        "meta_mean_anomaly": 268.5142,
        "meta_ephemeris_type": 0,
        "meta_classification_type": "U",
        "meta_norad_cat_id": 30275,
        "meta_element_set_no": 999,
        "meta_rev_at_epoch": 98279,
        "meta_bstar": 0.0022150941,
        "meta_mean_motion_dot": 7.845e-05,
        "meta_mean_motion_ddot": 0,
        "tle_line1": "1 30275U 99025YL  25360.22195227  .00007845  00000+0  22151-2 0  9994",
        "tle_line2": "2 30275  98.6267  84.7008 0039631 147.5322 268.5142 14.45491888982795"
      },
      "geometry": {
        "type": "Point",
        "coordinates": [
          -90.92397485043594,
          23.93325277843815
        ]
      }
    },
    {
      "type": "Feature",
      "properties": {
        "norad_id": 30276,
        "name": "FENGYUN 1C DEB",
        "group": "fengyun-1c-debris",
        "lat": -73.60038875239027,
        "lon": -139.5249869696828,
        "alt_km": 824.2270838834111,
        "timestamp": "2025-12-26T17:24:54.994548+00:00",
        "meta_object_name": "FENGYUN 1C DEB",
        "meta_object_id": "1999-025YM",
        "meta_epoch": "2025-12-24T22:09:07.879968",
        "meta_mean_motion": 14.27095109,
        "meta_eccentricity": 0.0023922,
        "meta_inclination": 98.8584,
        "meta_ra_of_asc_node": 70.6482,
        "meta_arg_of_pericenter": 56.0779,
        "meta_mean_anomaly": 304.2671,
        "meta_ephemeris_type": 0,
        "meta_classification_type": "U",
        "meta_norad_cat_id": 30276,
        "meta_element_set_no": 999,
        "meta_rev_at_epoch": 97704,
        "meta_bstar": 0.0012846,
        "meta_mean_motion_dot": 3.096e-05,
        "meta_mean_motion_ddot": 0,
        "tle_line1": "1 30276U 99025YM  25358.92300787  .00003096  00000+0  12846-2 0  9992",
        "tle_line2": "2 30276  98.8584  70.6482 0023922  56.0779 304.2671 14.27095109977049"
      },
      "geometry": {
        "type": "Point",
        "coordinates": [
          -139.5249869696828,
          -73.60038875239027
        ]
      }
    },
    {
      "type": "Feature",
      "properties": {
        "norad_id": 30277,
        "name": "FENGYUN 1C DEB",
        "group": "fengyun-1c-debris",
        "lat": 7.887272636277242,
        "lon": 70.18662514206001,
        "alt_km": 906.2845252883162,
        "timestamp": "2025-12-26T17:24:54.994558+00:00",
        "meta_object_name": "FENGYUN 1C DEB",
        "meta_object_id": "1999-025YN",
        "meta_epoch": "2025-12-25T21:16:53.395104",
        "meta_mean_motion": 14.13641621,
        "meta_eccentricity": 0.0123952,
        "meta_inclination": 98.9715,
        "meta_ra_of_asc_node": 70.5991,
        "meta_arg_of_pericenter": 140.9894,
        "meta_mean_anomaly": 281.2722,
        "meta_ephemeris_type": 0,
        "meta_classification_type": "U",
        "meta_norad_cat_id": 30277,
        "meta_element_set_no": 999,
        "meta_rev_at_epoch": 96975,
        "meta_bstar": 0.0011079,
        "meta_mean_motion_dot": 2.206e-05,
        "meta_mean_motion_ddot": 0,
        "tle_line1": "1 30277U 99025YN  25359.88672911  .00002206  00000+0  11079-2 0  9999",
        "tle_line2": "2 30277  98.9715  70.5991 0123952 140.9894 281.2722 14.13641621969757"
      },
      "geometry": {
        "type": "Point",
        "coordinates": [
          70.18662514206001,
          7.887272636277242
        ]
      }
    },
    {
      "type": "Feature",
      "properties": {
        "norad_id": 30279,
        "name": "FENGYUN 1C DEB",
        "group": "fengyun-1c-debris",
        "lat": -46.001156410187185,
        "lon": -54.39086429340109,
        "alt_km": 789.3101127416539,
        "timestamp": "2025-12-26T17:24:54.994568+00:00",
        "meta_object_name": "FENGYUN 1C DEB",
        "meta_object_id": "1999-025YQ",
        "meta_epoch": "2025-12-25T19:59:14.251776",
        "meta_mean_motion": 14.23158443,
        "meta_eccentricity": 0.02196762,
        "meta_inclination": 99.1515,
        "meta_ra_of_asc_node": 295.0711,
        "meta_arg_of_pericenter": 35.393,
        "meta_mean_anomaly": 28.6213,
        "meta_ephemeris_type": 0,
        "meta_classification_type": "U",
        "meta_norad_cat_id": 30279,
        "meta_element_set_no": 999,
        "meta_rev_at_epoch": 97797,
        "meta_bstar": 0.0010317564,
        "meta_mean_motion_dot": 2.937e-05,
        "meta_mean_motion_ddot": 0,
        "tle_line1": "1 30279U 99025YQ  25359.83280384  .00002937  00000+0  10318-2 0  9991",
        "tle_line2": "2 30279  99.1515 295.0711 0219676  35.3930  28.6213 14.23158443977978"
      },
      "geometry": {
        "type": "Point",
        "coordinates": [
          -54.39086429340109,
          -46.001156410187185
        ]
      }
    },
    {
      "type": "Feature",
      "properties": {
        "norad_id": 30280,
        "name": "FENGYUN 1C DEB",
        "group": "fengyun-1c-debris",
        "lat": -78.61941088204094,
        "lon": 39.631149341736695,
        "alt_km": 850.307776248651,
        "timestamp": "2025-12-26T17:24:54.994578+00:00",
        "meta_object_name": "FENGYUN 1C DEB",
        "meta_object_id": "1999-025YR",
        "meta_epoch": "2025-12-25T21:29:10.048416",
        "meta_mean_motion": 13.98333719,
        "meta_eccentricity": 0.007982,
        "meta_inclination": 98.7755,
        "meta_ra_of_asc_node": 348.7148,
        "meta_arg_of_pericenter": 292.8375,
        "meta_mean_anomaly": 126.8177,
        "meta_ephemeris_type": 0,
        "meta_classification_type": "U",
        "meta_norad_cat_id": 30280,
        "meta_element_set_no": 999,
        "meta_rev_at_epoch": 96590,
        "meta_bstar": 0.00014259,
        "meta_mean_motion_dot": 1.67e-06,
        "meta_mean_motion_ddot": 0,
        "tle_line1": "1 30280U 99025YR  25359.89525519  .00000167  00000+0  14259-3 0  9993",
        "tle_line2": "2 30280  98.7755 348.7148 0079820 292.8375 126.8177 13.98333719965901"
      },
      "geometry": {
        "type": "Point",
        "coordinates": [
          39.631149341736695,
          -78.61941088204094
        ]
      }
    },
    {
      "type": "Feature",
      "properties": {
        "norad_id": 30281,
        "name": "FENGYUN 1C DEB",
        "group": "fengyun-1c-debris",
        "lat": 29.415581097929728,
        "lon": -14.811732784610248,
        "alt_km": 876.1885479044458,
        "timestamp": "2025-12-26T17:24:54.994588+00:00",
        "meta_object_name": "FENGYUN 1C DEB",
        "meta_object_id": "1999-025YS",
        "meta_epoch": "2025-12-25T21:09:44.947008",
        "meta_mean_motion": 14.10485262,
        "meta_eccentricity": 0.0028386,
        "meta_inclination": 98.7579,
        "meta_ra_of_asc_node": 349.3525,
        "meta_arg_of_pericenter": 198.9375,
        "meta_mean_anomaly": 228.4812,
        "meta_ephemeris_type": 0,
        "meta_classification_type": "U",
        "meta_norad_cat_id": 30281,
        "meta_element_set_no": 999,
        "meta_rev_at_epoch": 97406,
        "meta_bstar": 0.00017288,
        "meta_mean_motion_dot": 2.66e-06,
        "meta_mean_motion_ddot": 0,
        "tle_line1": "1 30281U 99025YS  25359.88177022  .00000266  00000+0  17288-3 0  9990",
        "tle_line2": "2 30281  98.7579 349.3525 0028386 198.9375 228.4812 14.10485262974067"
      },
      "geometry": {
        "type": "Point",
        "coordinates": [
          -14.811732784610248,
          29.415581097929728
        ]
      }
    }
  ]
}